IRIDIUM 7               
1 24793U 97020B   25106.78404489  .00000792  00000+0  26669-3 0  9990
2 24793  86.4025 202.6090 0002012  90.1750 269.9677 14.35886916463301
IRIDIUM 5               
1 24795U 97020D   25106.49184573  .00010664  00000+0  89158-3 0  9990
2 24795  86.3845 112.1802 0110187   1.3234 358.8264 14.93692713476254
IRIDIUM 4               
1 24796U 97020E   25106.80609018  .00000642  00000+0  21104-3 0  9994
2 24796  86.4024 199.5212 0002245  92.3281 267.8173 14.36792249463689
IRIDIUM 914             
1 24836U 97030A   25106.84154698  .00001525  00000+0  47061-3 0  9994
2 24836  86.3995 208.2853 0003683  81.1674 278.9942 14.40813118460394
IRIDIUM 16              
1 24841U 97030F   25106.43138060  .00001082  00000+0  34700-3 0  9994
2 24841  86.4051 231.1964 0000251 209.6964 150.4220 14.38650833458120
IRIDIUM 911             
1 24842U 97030G   25106.59626184  .00001349  00000+0  36123-3 0  9998
2 24842  86.4478 229.9615 0012357 308.0665  51.9422 14.47552260466172
IRIDIUM 17              
1 24870U 97034B   25106.45006880  .00001106  00000+0  36137-3 0  9999
2 24870  86.3916 260.7132 0001780 141.9390 218.1934 14.37757410454718
IRIDIUM 920             
1 24871U 97034C   25106.44318179  .00001108  00000+0  33560-3 0  9995
2 24871  86.3972 240.0726 0009498 288.3505  71.6661 14.41465709457689
